NORAD_CAT_ID,OBJECT_NAME,OBJECT_TYPE,EPOCH,MEAN_MOTION,ECCENTRICITY,INCLINATION,RA_OF_ASC_NODE,ARG_OF_PERICENTER,MEAN_ANOMALY,BSTAR,MEAN_MOTION_DOT,MEAN_MOTION_DDOT,TLE_LINE0,TLE_LINE1,TLE_LINE2,SEMIMAJOR_AXIS,PERIOD,APOGEE,PERIGEE,DECAYED
53413.0,STARLINK-4500,PAYLOAD,2023-02-06 23:05:44,15.08849934,0.0001109,53.2185,132.1949,84.7999,275.312,0.00010563,1.394e-05,0.0,0 STARLINK-4500,1 53413U 22097AB  23037.96232013  .00001394  00000-0  10563-3 0  9992,2 53413  53.2185 132.1949 0001109  84.7999 275.3120 15.08849934 28065,6917.85,95.437,540.482,538.948,0.0
53413.0,STARLINK-4500,PAYLOAD,2023-02-07 13:24:12,15.08845963,0.0001265,53.2178,129.5235,96.8762,263.2374,0.00016519,2.343e-05,0.0,0 STARLINK-4500,1 53413U 22097AB  23038.55848244  .00002343  00000-0  16519-3 0  9999,2 53413  53.2178 129.5235 0001265  96.8762 263.2374 15.08845963 28649,6917.862,95.437,540.602,538.852,0.0
53413.0,STARLINK-4500,PAYLOAD,2023-02-07 14:59:35,15.08859757,9.11e-05,53.2174,129.2222,109.3525,250.7566,0.0002589,3.837e-05,0.0,0 STARLINK-4500,1 53413U 22097AB  23038.62471194  .00003837  00000-0  25890-3 0  9994,2 53413  53.2174 129.2222 0000911 109.3525 250.7566 15.08859757 28653,6917.82,95.436,540.315,539.055,0.0
53413.0,STARLINK-4500,PAYLOAD,2023-02-07 22:56:31,15.08848786,7.3e-05,53.2162,127.7349,102.2047,257.9027,7.2232e-05,8.62e-06,0.0,0 STARLINK-4500,1 53413U 22097AB  23038.95591638  .00000862  00000-0  72232-4 0  9994,2 53413  53.2162 127.7349 0000730 102.2047 257.9027 15.08848786 28216,6917.854,95.437,540.224,539.214,0.0
53413.0,STARLINK-4500,PAYLOAD,2023-02-08 13:14:59,15.08848795,0.0001427,53.2174,125.0638,82.6636,277.4518,7.9182e-05,9.73e-06,0.0,0 STARLINK-4500,1 53413U 22097AB  23039.55207896  .00000973  00000-0  79182-4 0  9995,2 53413  53.2174 125.0638 0001427  82.6636 277.4518 15.08848795 28795,6917.854,95.437,540.706,538.731,0.0
53413.0,STARLINK-4500,PAYLOAD,2023-02-08 14:50:21,15.08861835,9.82e-05,53.2168,124.7626,98.5695,261.5408,0.00016098,2.277e-05,0.0,0 STARLINK-4500,1 53413U 22097AB  23039.61830840  .00002277  00000-0  16098-3 0  9998,2 53413  53.2168 124.7626 0000982  98.5695 261.5408 15.08861835 28317,6917.814,95.436,540.358,538.999,0.0
53413.0,STARLINK-4500,PAYLOAD,2023-02-09 05:08:52,15.08829865,0.000182,53.217,122.0893,69.8549,290.2639,-8.3401e-05,-1.615e-05,0.0,0 STARLINK-4500,1 53413U 22097AB  23040.21449138 -.00001615  00000-0 -83401-4 0  9992,2 53413  53.2170 122.0893 0001820  69.8549 290.2639 15.08829865 28400,6917.911,95.438,541.035,538.517,0.0
53413.0,STARLINK-4500,PAYLOAD,2023-02-09 11:30:24,15.08838712,0.0001432,53.2174,120.8982,96.2193,263.8962,-7.521e-05,-1.485e-05,0.0,0 STARLINK-4500,1 53413U 22097AB  23040.47944559 -.00001485  00000-0 -75210-4 0  9991,2 53413  53.2174 120.8982 0001432  96.2193 263.8962 15.08838712 28931,6917.884,95.438,540.74,538.759,0.0
53413.0,STARLINK-4500,PAYLOAD,2023-02-09 16:16:33,15.0885256,0.0001306,53.2167,120.0056,75.4266,284.6871,0.00019224,2.774e-05,0.0,0 STARLINK-4500,1 53413U 22097AB  23040.67816055  .00002774  00000-0  19224-3 0  9994,2 53413  53.2167 120.0056 0001306  75.4266 284.6871 15.08852560 28473,6917.842,95.437,540.61,538.804,0.0
53413.0,STARLINK-4500,PAYLOAD,2023-02-09 22:38:06,15.08825497,0.0001719,53.2166,118.8171,63.7624,296.3544,-9.8407e-05,-1.853e-05,0.0,0 STARLINK-4500,1 53413U 22097AB  23040.94313529 -.00001853  00000-0 -98407-4 0  9992,2 53413  53.2166 118.8171 0001719  63.7624 296.3544 15.08825497 28512,6917.925,95.438,540.979,538.601,0.0
53413.0,STARLINK-4500,PAYLOAD,2023-02-10 14:31:57,15.08858537,0.0001581,53.2162,115.8424,66.4936,293.6222,0.00077709,0.00012107,0.0,0 STARLINK-4500,1 53413U 22097AB  23041.60552813  .00012107  00000-0  77709-3 0  9990,2 53413  53.2162 115.8424 0001581  66.4936 293.6222 15.08858537 28614,6917.824,95.436,540.782,538.595,0.0
53413.0,STARLINK-4500,PAYLOAD,2023-02-10 16:07:20,15.08859287,0.0001822,53.2173,115.5466,77.7806,282.3391,0.00078034,0.00012159,0.0,0 STARLINK-4500,1 53413U 22097AB  23041.67176919  .00012159  00000-0  78034-3 0  9995,2 53413  53.2173 115.5466 0001822  77.7806 282.3391 15.08859287 29119,6917.821,95.436,540.947,538.426,0.0
53413.0,STARLINK-4500,PAYLOAD,2023-02-10 22:28:54,15.0883248,0.0001813,53.2164,114.3564,56.387,303.7295,4.458e-05,4.21e-06,0.0,0 STARLINK-4500,1 53413U 22097AB  23041.93673713  .00000421  00000-0  44580-4 0  9997,2 53413  53.2164 114.3564 0001813  56.3870 303.7295 15.08832480 28665,6917.903,95.438,541.023,538.514,0.0
53413.0,STARLINK-4500,PAYLOAD,2023-02-11 12:47:22,15.0885228,0.0001479,53.2161,111.6797,80.8876,279.2284,0.0020086,0.00031834,0.0,0 STARLINK-4500,1 53413U 22097AB  23042.53289610  .00031834  00000-0  20086-2 0  9998,2 53413  53.2161 111.6797 0001479  80.8876 279.2284 15.08852280 28751,6917.843,95.437,540.731,538.685,0.0
53413.0,STARLINK-4500,PAYLOAD,2023-02-11 15:58:08,15.08865335,0.0001446,53.2162,111.085,74.0051,286.1101,0.0024089,0.00038285,0.0,0 STARLINK-4500,1 53413U 22097AB  23042.66537401  .00038285  00000-0  24089-2 0  9990,2 53413  53.2162 111.0850 0001446  74.0051 286.1101 15.08865335 29267,6917.803,95.436,540.668,538.668,0.0
53413.0,STARLINK-4500,PAYLOAD,2023-02-12 11:02:46,15.08866834,0.0001268,53.2161,107.516,81.3117,278.8018,0.0024029,0.0003819,0.0,0 STARLINK-4500,1 53413U 22097AB  23043.46025635  .00038190  00000-0  24029-2 0  9999,2 53413  53.2161 107.5160 0001268  81.3117 278.8018 15.08866834 28894,6917.798,95.436,540.541,538.786,0.0
53413.0,STARLINK-4500,PAYLOAD,2023-02-12 20:35:05,15.08806507,0.0003789,53.2148,105.7254,95.7237,264.4188,0.0018731,0.00029624,0.0,0 STARLINK-4500,1 53413U 22097AB  23043.85770484  .00029624  00000-0  18731-2 0  9996,2 53413  53.2148 105.7254 0003789  95.7237 264.4188 15.08806507 28952,6917.983,95.44,542.469,537.227,0.0
53413.0,STARLINK-4500,PAYLOAD,2023-02-13 04:32:00,15.0883424,0.0001027,53.2167,104.246,111.9817,248.1284,0.001543,0.0002435,0.0,0 STARLINK-4500,1 53413U 22097AB  23044.18889828  .00024350  00000-0  15430-2 0  9990,2 53413  53.2167 104.2460 0001027 111.9817 248.1284 15.08834240 29002,6917.898,95.438,540.473,539.053,0.0
53413.0,STARLINK-4500,PAYLOAD,2023-02-13 10:53:33,15.08863359,0.0001212,53.2165,103.0561,102.9497,257.1631,0.0024988,0.0003973,0.0,0 STARLINK-4500,1 53413U 22097AB  23044.45385538  .00039730  00000-0  24988-2 0  9995,2 53413  53.2165 103.0561 0001212 102.9497 257.1631 15.08863359 29042,6917.809,95.436,540.512,538.836,0.0
53413.0,STARLINK-4500,PAYLOAD,2023-02-13 20:25:52,15.08824683,0.000381,53.2166,101.2693,81.6081,278.5343,-0.0003239,-5.439e-05,0.0,0 STARLINK-4500,1 53413U 22097AB  23044.85130091 -.00005439  00000-0 -32390-3 0  9999,2 53413  53.2166 101.2693 0003810  81.6081 278.5343 15.08824683 29108,6917.927,95.439,542.428,537.156,0.0
53413.0,STARLINK-4500,PAYLOAD,2023-02-14 10:44:20,15.08851594,0.0001508,53.2172,98.5951,97.6824,262.4339,0.0017871,0.00028277,0.0,0 STARLINK-4500,1 53413U 22097AB  23045.44745684  .00028277  00000-0  17871-2 0  9994,2 53413  53.2172  98.5951 0001508  97.6824 262.4339 15.08851594 29191,6917.845,95.437,540.753,538.667,0.0
53413.0,STARLINK-4500,PAYLOAD,2023-02-14 13:55:06,15.08856185,0.0001194,53.2185,98.0019,83.0695,277.0433,0.0020401,0.00032344,0.0,0 STARLINK-4500,1 53413U 22097AB  23045.57993703  .00032344  00000-0  20401-2 0  9998,2 53413  53.2185  98.0019 0001194  83.0695 277.0433 15.08856185 29706,6917.831,95.437,540.522,538.87,0.0
53413.0,STARLINK-4500,PAYLOAD,2023-02-14 20:16:39,15.08843385,9.57e-05,53.2166,96.811,103.4385,256.6714,0.00075355,0.00011726,0.0,0 STARLINK-4500,1 53413U 22097AB  23045.84489816  .00011726  00000-0  75355-3 0  9993,2 53413  53.2166  96.8110 0000957 103.4385 256.6714 15.08843385 29255,6917.87,95.437,540.397,539.073,0.0
53413.0,STARLINK-4500,PAYLOAD,2023-02-15 12:10:30,15.08867396,0.0001213,53.2163,93.838,93.7619,266.3512,0.0023383,0.0003715,0.0,0 STARLINK-4500,1 53413U 22097AB  23046.50729747  .00037150  00000-0  23383-2 0  9999,2 53413  53.2163  93.8380 0001213  93.7619 266.3512 15.08867396 29842,6917.797,95.436,540.501,538.823,0.0
53413.0,STARLINK-4500,PAYLOAD,2023-02-15 20:07:25,15.08864275,0.0001402,53.2164,92.3508,82.554,277.5611,0.0014362,0.00022658,0.0,0 STARLINK-4500,1 53413U 22097AB  23046.83849504  .00022658  00000-0  14362-2 0  9993,2 53413  53.2164  92.3508 0001402  82.5540 277.5611 15.08864275 29890,6917.806,95.436,540.641,538.701,0.0
53413.0,STARLINK-4500,PAYLOAD,2023-02-16 08:50:30,15.08869986,0.0001033,53.2159,89.9727,84.3274,275.7836,0.0015905,0.00025136,0.0,0 STARLINK-4500,1 53413U 22097AB  23047.36840843  .00025136  00000-0  15905-2 0  9997,2 53413  53.2159  89.9727 0001033  84.3274 275.7836 15.08869986 29481,6917.789,95.436,540.368,538.939,0.0
53413.0,STARLINK-4500,PAYLOAD,2023-02-16 12:01:16,15.08877693,0.0001122,53.2172,89.378,82.7243,277.3877,0.001947,0.00030867,0.0,0 STARLINK-4500,1 53413U 22097AB  23047.50088555  .00030867  00000-0  19470-2 0  9995,2 53413  53.2172  89.3780 0001122  82.7243 277.3877 15.08877693 29999,6917.765,95.435,540.406,538.854,0.0
53413.0,STARLINK-4500,PAYLOAD,2023-02-16 19:58:12,15.08816265,0.0001138,53.2188,87.888,117.8211,242.2896,-0.0017621,-0.00028204,0.0,0 STARLINK-4500,1 53413U 22097AB  23047.83208849 -.00028204  00000-0 -17621-2 0  9991,2 53413  53.2188  87.8880 0001138 117.8211 242.2896 15.08816265 30040,6917.953,95.439,540.605,539.031,0.0
53413.0,STARLINK-4500,PAYLOAD,2023-02-17 02:19:45,15.08822519,0.000117,53.2172,86.6998,119.4387,240.6722,0.00067776,0.0001051,0.0,0 STARLINK-4500,1 53413U 22097AB  23048.09705688  .00010510  00000-0  67776-3 0  9999,2 53413  53.2172  86.6998 0001170 119.4387 240.6722 15.08822519 29595,6917.934,95.439,540.608,538.989,0.0
53413.0,STARLINK-4500,PAYLOAD,2023-02-17 08:41:18,15.0881496,0.0001158,53.2169,85.5107,117.4434,242.6675,0.0011313,0.0001775,0.0,0 STARLINK-4500,1 53413U 22097AB  23048.36202211  .00017750  00000-0  11313-2 0  9991,2 53413  53.2169  85.5107 0001158 117.4434 242.6675 15.08814960 30129,6917.957,95.439,540.623,539.021,0.0
